NUSHSAT1                
1 63211U 25052B   26068.64700493  .00023034  00000+0  74857-3 0  9997
2 63211  97.4095 325.7239 0005501  84.7512 275.4357 15.31903202 54882
STARLINK-33787          
1 63519U 25071AC  26068.46548510  .00025900  00000+0  88384-3 0  9993
2 63519  53.1596 143.1949 0001252  63.8364 296.2765 15.30188521 52330
